[{"OBJECT_NAME":"STARLINK-6185","OBJECT_ID":"2023-083AB","EPOCH":"2026-03-09T22:00:01.999584","MEAN_MOTION":15.14323415,"ECCENTRICITY":0.00018993,"INCLINATION":43.0006,"RA_OF_ASC_NODE":79.6238,"ARG_OF_PERICENTER":290.3742,"MEAN_ANOMALY":128.6486,"EPHEMERIS_TYPE":0,"CLASSIFICATION_TYPE":"U","NORAD_CAT_ID":56901,"ELEMENT_SET_NO":999,"REV_AT_EPOCH":572,"BSTAR":0.005271535,"MEAN_MOTION_DOT":0.00099461,"MEAN_MOTION_DDOT":0},{"OBJECT_NAME":"COSMOS 397 DEB","OBJECT_ID":"1971-015AJ","EPOCH":"2026-03-09T18:29:11.550048","MEAN_MOTION":14.57731986,"ECCENTRICITY":0.02840491,"INCLINATION":65.3533,"RA_OF_ASC_NODE":250.7757,"ARG_OF_PERICENTER":34.5343,"MEAN_ANOMALY":327.3849,"EPHEMERIS_TYPE":0,"CLASSIFICATION_TYPE":"U","NORAD_CAT_ID":5155,"ELEMENT_SET_NO":999,"REV_AT_EPOCH":73323,"BSTAR":0.001223321,"MEAN_MOTION_DOT":9.675e-5,"MEAN_MOTION_DDOT":0}]
